STARLINK-2161           
1 47747U 21017AB  26068.61633199  .00006296  00000+0  22455-3 0  9993
2 47747  53.1612 194.2369 0001234  89.9995 270.1148 15.30197133278005
NUSAT-50 (NANCY ROMAN)  
1 60493U 24149AB  26068.80227738  .00012094  00000+0  42252-3 0  9994
2 60493  97.3817 150.7693 0002523 238.0469 122.0527 15.29713355 86930
